NORAD_CAT_ID,OBJECT_NAME,OBJECT_TYPE,EPOCH,MEAN_MOTION,ECCENTRICITY,INCLINATION,RA_OF_ASC_NODE,ARG_OF_PERICENTER,MEAN_ANOMALY,BSTAR,MEAN_MOTION_DOT,MEAN_MOTION_DDOT,TLE_LINE0,TLE_LINE1,TLE_LINE2,SEMIMAJOR_AXIS,PERIOD,APOGEE,PERIGEE,DECAYED
53732.0,STARLINK-4661,PAYLOAD,2022-11-17 06:00:00,15.08836746,0.0002051,53.2175,279.0833,48.5072,153.409,1.3381e-05,-7.5e-07,0.0,0 STARLINK-4661,1 53732U 22107AJ  22321.25001157 -.00000075  00000-0  13381-4 0  9996,2 53732  53.2175 279.0833 0002051  48.5072 153.4090 15.08836746 11519,6917.89,95.438,541.174,538.336,0.0
53732.0,STARLINK-4661,PAYLOAD,2022-11-17 14:00:01,15.088514800000002,0.0001786999999999,53.2158,277.5794,46.4692,167.0423,-0.0031211,-0.00049635,0.0,0 STARLINK-4661,1 53732U 22107AJ  22321.58334491 -.00049635  00000-0 -31211-2 0  9998,2 53732  53.2158 277.5794 0001787  46.4692 167.0423 15.08851480  1308,6917.845,95.437,540.947,538.474,0.0
53732.0,STARLINK-4661,PAYLOAD,2022-11-17 22:00:00,15.08853239,0.0001715,53.2168,276.0867,45.4768,179.6122,-0.0010086,-0.0001631,0.0,0 STARLINK-4661,1 53732U 22107AJ  22321.91667824 -.00016310  00000-0 -10086-2 0  9995,2 53732  53.2168 276.0867 0001715  45.4768 179.6122 15.08853239  1307,6917.84,95.437,540.891,538.519,0.0
53732.0,STARLINK-4661,PAYLOAD,2022-11-18 14:00:01,15.08871915,0.0001819,53.2161,273.09,46.4669,201.8112,-0.0029506,-0.00046982,0.0,0 STARLINK-4661,1 53732U 22107AJ  22322.58334491 -.00046982  00000-0 -29506-2 0  9995,2 53732  53.2161 273.0900 0001819  46.4669 201.8112 15.08871915 11715,6917.783,95.436,540.906,538.389,0.0
53732.0,STARLINK-4661,PAYLOAD,2022-11-18 22:00:00,15.08841588,0.0001788,53.2163,271.5933,49.6841,210.2039,0.00043032,6.567e-05,0.0,0 STARLINK-4661,1 53732U 22107AJ  22322.91667824  .00006567  00000-0  43032-3 0  9995,2 53732  53.2163 271.5933 0001788  49.6841 210.2039 15.08841588  1307,6917.876,95.437,540.977,538.504,0.0
53732.0,STARLINK-4661,PAYLOAD,2022-11-19 08:00:01,15.08842882,0.0001927,53.2163,269.7243,41.5771,322.8126,0.00060389,9.337e-05,0.0,0 STARLINK-4661,1 53732U 22107AJ  22323.33334491  .00009337  00000-0  60389-3 0  9995,2 53732  53.2163 269.7243 0001927  41.5771 322.8126 15.08842882 11832,6917.871999999999,95.437,541.07,538.404,0.0
53732.0,STARLINK-4661,PAYLOAD,2022-11-19 14:00:01,15.08843164,0.0001781999999999,53.2166,268.6005,44.2087,238.8886,-0.00099674,-0.00016118,0.0,0 STARLINK-4661,1 53732U 22107AJ  22323.58334491 -.00016118  00000-0 -99674-3 0  9998,2 53732  53.2166 268.6005 0001782  44.2087 238.8886 15.08843164  1302,6917.871,95.437,540.9680000000002,538.503,0.0
53732.0,STARLINK-4661,PAYLOAD,2022-11-19 22:00:00,15.08852594,0.0001735,53.2169,267.1039,47.5778,247.1033,-0.00017195,-3.025e-05,0.0,0 STARLINK-4661,1 53732U 22107AJ  22323.91667824 -.00003025  00000-0 -17195-3 0  9995,2 53732  53.2169 267.1039 0001735  47.5778 247.1033 15.08852594  1301,6917.842,95.437,540.9069999999998,538.507,0.0
53732.0,STARLINK-4661,PAYLOAD,2022-11-20 06:00:00,15.08827964,0.0001929,53.2169,265.60900000000004,41.7122,264.5847,0.00030303,4.536e-05,0.0,0 STARLINK-4661,1 53732U 22107AJ  22324.25001157  .00004536  00000-0  30303-3 0  9996,2 53732  53.2169 265.6090 0001929  41.7122 264.5847 15.08827964 11967,6917.917,95.438,541.117,538.448,0.0
53732.0,STARLINK-4661,PAYLOAD,2022-11-20 14:00:01,15.08820856,0.0001796,53.2171,264.1111,45.143,272.7416,-0.0011242,-0.00018126,0.0,0 STARLINK-4661,1 53732U 22107AJ  22324.58334491 -.00018126  00000-0 -11242-2 0  9994,2 53732  53.2171 264.1111 0001796  45.1430 272.7416 15.08820856  1303,6917.939,95.439,541.0459999999998,538.561,0.0
53732.0,STARLINK-4661,PAYLOAD,2022-11-20 22:00:00,15.08830051,0.0001801,53.2173,262.6148,49.3437,280.0996,-0.0002146,-3.701e-05,0.0,0 STARLINK-4661,1 53732U 22107AJ  22324.91667824 -.00003701  00000-0 -21460-3 0  9997,2 53732  53.2173 262.6148 0001801  49.3437 280.0996 15.08830051  1301,6917.911,95.438,541.0219999999998,538.53,0.0
53732.0,STARLINK-4661,PAYLOAD,2022-11-21 08:00:01,15.08818842,0.0001971,53.217,260.7456,43.0131,30.9045,0.0024319,0.00038606,0.0,0 STARLINK-4661,1 53732U 22107AJ  22325.33334491  .00038606  00000-0  24319-2 0  9990,2 53732  53.2170 260.7456 0001971  43.0131  30.9045 15.08818842 12133,6917.945,95.439,541.174,538.447,0.0
53732.0,STARLINK-4661,PAYLOAD,2022-11-21 14:00:01,15.08835597,0.0001826,53.2172,259.6219,48.3744,304.2352,0.00086509,0.00013505,0.0,0 STARLINK-4661,1 53732U 22107AJ  22325.58334491  .00013505  00000-0  86509-3 0  9998,2 53732  53.2172 259.6219 0001826  48.3744 304.2352 15.08835597  1307,6917.894,95.438,541.0219999999998,538.496,0.0
53732.0,STARLINK-4661,PAYLOAD,2022-11-21 22:00:00,15.08865075,0.0001824,53.2175,258.1258,50.42100000000001,313.7766,-0.00056781,-9.32e-05,0.0,0 STARLINK-4661,1 53732U 22107AJ  22325.91667824 -.00009320  00000-0 -56781-3 0  9995,2 53732  53.2175 258.1258 0001824  50.4210 313.7766 15.08865075  1305,6917.804,95.436,540.931,538.4069999999998,0.0
53732.0,STARLINK-4661,PAYLOAD,2022-11-22 06:00:02,15.08851362,0.0001926,53.2172,256.6308,44.5105,331.374,-0.00017258,-3.035e-05,0.0,0 STARLINK-4661,1 53732U 22107AJ  22326.25002315 -.00003035  00000-0 -17258-3 0  9994,2 53732  53.2172 256.6308 0001926  44.5105 331.3740 15.08851362 12271,6917.846,95.437,541.043,538.378,0.0
53732.0,STARLINK-4661,PAYLOAD,2022-11-22 14:00:01,15.08830335,0.0001684,53.2171,255.1327,46.4916,341.0055,-0.0012306,-0.00019815,0.0,0 STARLINK-4661,1 53732U 22107AJ  22326.58335648 -.00019815  00000-0 -12306-2 0  9999,2 53732  53.2171 255.1327 0001684  46.4916 341.0055 15.08830335  1303,6917.91,95.438,540.94,538.61,0.0
53732.0,STARLINK-4661,PAYLOAD,2022-11-22 22:00:00,15.08834058,0.0001703,53.2172,253.637,47.0496,351.9507,-0.0012591,-0.00020268,0.0,0 STARLINK-4661,1 53732U 22107AJ  22326.91667824 -.00020268  00000-0 -12591-2 0  9990,2 53732  53.2172 253.6370 0001703  47.0496 351.9507 15.08834058 12374,6917.899,95.438,540.942,538.585,0.0
53732.0,STARLINK-4661,PAYLOAD,2022-11-23 14:00:01,15.08820056,0.0001709,53.2167,250.644,47.4684,14.6953,0.0017576,0.0002778,0.0,0 STARLINK-4661,1 53732U 22107AJ  22327.58334491  .00027780  00000-0  17576-2 0  9997,2 53732  53.2167 250.6440 0001709  47.4684  14.6953 15.08820056  1304,6917.941,95.439,540.989,538.624,0.0
53732.0,STARLINK-4661,PAYLOAD,2022-11-23 16:00:00,15.0881432,0.0001699,53.2165,250.2697,48.3991,106.6623,0.0030281,0.000482,0.0,0 STARLINK-4661,1 53732U 22107AJ  22327.66667824  .00048200  00000-0  30281-2 0  9993,2 53732  53.2165 250.2697 0001699  48.3991 106.6623 15.08814320 12485,6917.959,95.439,540.999,538.649,0.0
53732.0,STARLINK-4661,PAYLOAD,2022-11-23 22:00:00,15.08857173,0.0001799,53.2167,249.1484,49.0032,24.7361,-0.001408,-0.00022637,0.0,0 STARLINK-4661,1 53732U 22107AJ  22327.91667824 -.00022637  00000-0 -14080-2 0  9998,2 53732  53.2167 249.1484 0001799  49.0032  24.7361 15.08857173  1304,6917.828,95.436,540.937,538.448,0.0
53732.0,STARLINK-4661,PAYLOAD,2022-11-24 08:00:01,15.08862524,0.0001911,53.2162,247.2787,43.302,134.9391,-0.001698,-0.00027227,0.0,0 STARLINK-4661,1 53732U 22107AJ  22328.33334491 -.00027227  00000-0 -16980-2 0  9997,2 53732  53.2162 247.2787 0001911  43.3020 134.9391 15.08862524 12589,6917.812,95.436,540.999,538.355,0.0
53732.0,STARLINK-4661,PAYLOAD,2022-11-24 14:00:01,15.08826281,0.000172,53.2164,246.1551,46.9648,49.9961,0.00068987,0.00010704,0.0,0 STARLINK-4661,1 53732U 22107AJ  22328.58334491  .00010704  00000-0  68987-3 0  9999,2 53732  53.2164 246.1551 0001720  46.9648  49.9961 15.08826281  1307,6917.922,95.438,540.977,538.597,0.0
53732.0,STARLINK-4661,PAYLOAD,2022-11-24 22:00:00,15.08851624,0.0001826,53.2163,244.6595,47.4656,61.0733,-0.0014661,-0.00023553,0.0,0 STARLINK-4661,1 53732U 22107AJ  22328.91667824 -.00023553  00000-0 -14661-2 0  9992,2 53732  53.2163 244.6595 0001826  47.4656  61.0733 15.08851624  1300,6917.845,95.437,540.9730000000002,538.447,0.0
53732.0,STARLINK-4661,PAYLOAD,2022-11-25 08:00:01,15.08864128,0.0001913,53.216,242.7897,42.2217,170.8102,-0.0023915,-0.00038173,0.0,0 STARLINK-4661,1 53732U 22107AJ  22329.33334491 -.00038173  00000-0 -23915-2 0  9996,2 53732  53.2160 242.7897 0001913  42.2217 170.8102 15.08864128 12735,6917.807,95.436,540.995,538.3480000000002,0.0
53732.0,STARLINK-4661,PAYLOAD,2022-11-25 14:00:01,15.08821966,0.0001735,53.2161,241.6661,45.13,86.62299999999998,0.0013697,0.00021567,0.0,0 STARLINK-4661,1 53732U 22107AJ  22329.58334491  .00021567  00000-0  13697-2 0  9996,2 53732  53.2161 241.6661 0001735  45.1300  86.6230 15.08821966  1300,6917.936,95.439,541.001,538.6,0.0
53732.0,STARLINK-4661,PAYLOAD,2022-11-25 22:00:00,15.08854463,0.0001858,53.2161,240.1706,45.7272,97.6065,-0.0010284,-0.00016625,0.0,0 STARLINK-4661,1 53732U 22107AJ  22329.91667824 -.00016625  00000-0 -10284-2 0  9992,2 53732  53.2161 240.1706 0001858  45.7272  97.6065 15.08854463 12829,6917.8359999999975,95.437,540.987,538.4159999999998,0.0
53732.0,STARLINK-4661,PAYLOAD,2022-11-26 14:00:01,15.0883069,0.0001799,53.2161,237.177,44.464,122.1022,0.0013567,0.00021364,0.0,0 STARLINK-4661,1 53732U 22107AJ  22330.58334491  .00021364  00000-0  13567-2 0  9999,2 53732  53.2161 237.1770 0001799  44.4640 122.1022 15.08830690 12929,6917.909000000002,95.438,541.018,538.529,0.0
53732.0,STARLINK-4661,PAYLOAD,2022-11-26 22:00:00,15.08848289,0.0001949,53.2161,235.6816,45.5873,132.5706,-0.0027513,-0.0004382,0.0,0 STARLINK-4661,1 53732U 22107AJ  22330.91667824 -.00043820  00000-0 -27513-2 0  9994,2 53732  53.2161 235.6816 0001949  45.5873 132.5706 15.08848289  1307,6917.855,95.437,541.068,538.372,0.0
53732.0,STARLINK-4661,PAYLOAD,2022-11-27 06:00:00,15.08831084,0.0002061,53.2159,234.186,41.996,147.7486,-0.00065611,-0.00010713,0.0,0 STARLINK-4661,1 53732U 22107AJ  22331.25001157 -.00010713  00000-0 -65611-3 0  9990,2 53732  53.2159 234.1860 0002061  41.9960 147.7486 15.08831084 13020,6917.908,95.438,541.198,538.347,0.0
